[{"OBJECT_NAME":"STARLINK-11513 [DTC]","OBJECT_ID":"2025-008C","EPOCH":"2026-03-09T13:30:42.645312","MEAN_MOTION":15.71070543,"ECCENTRICITY":0.0002069,"INCLINATION":42.9992,"RA_OF_ASC_NODE":126.9885,"ARG_OF_PERICENTER":272.1862,"MEAN_ANOMALY":87.8769,"EPHEMERIS_TYPE":0,"CLASSIFICATION_TYPE":"U","NORAD_CAT_ID":62589,"ELEMENT_SET_NO":999,"REV_AT_EPOCH":6609,"BSTAR":0.0018421,"MEAN_MOTION_DOT":0.00245393,"MEAN_MOTION_DDOT":0},{"OBJECT_NAME":"OBJECT AA","OBJECT_ID":"2018-111AA","EPOCH":"2026-03-09T23:36:11.109888","MEAN_MOTION":15.74757696,"ECCENTRICITY":0.00074829,"INCLINATION":96.9708,"RA_OF_ASC_NODE":294.3811,"ARG_OF_PERICENTER":159.1179,"MEAN_ANOMALY":201.0394,"EPHEMERIS_TYPE":0,"CLASSIFICATION_TYPE":"U","NORAD_CAT_ID":43900,"ELEMENT_SET_NO":999,"REV_AT_EPOCH":40295,"BSTAR":0.00046694108,"MEAN_MOTION_DOT":0.00068892,"MEAN_MOTION_DDOT":0}]
